{"type":"FeatureCollection","features":[{"type":"Feature","geometry":{"type":"Point","coordinates":[-81.34485,29.21485]},"properties":{"track":"Volusia Speedway Park","event":"World of Outlaws Bike Week Jamboree","date":"2026-03-01","city":"Barberville","state":"FL","purse":"12000.00","image":"https://dv51o5gtpfm3w.cloudfront.net/Volusia_DCN2025 copy.jpg","status":"past","series":"sprint_car"}},{"type":"Feature","geometry":{"type":"Point","coordinates":[-81.34485,29.21485]},"properties":{"track":"Volusia Speedway Park","event":"World of Outlaws Bike Week Jamboree","date":"2026-03-02","city":"Barberville","state":"FL","purse":"12000.00","image":"https://dv51o5gtpfm3w.cloudfront.net/Volusia_DCN2025 copy.jpg","status":"past","series":"sprint_car"}},{"type":"Feature","geometry":{"type":"Point","coordinates":[-86.05146935582191,33.58153575276003]},"properties":{"track":"Talladega Short Track","event":"World of Outlaws Dega Duel","date":"2026-03-06","city":"Eastaboga","state":"AL","purse":"12000.00","image":"https://dv51o5gtpfm3w.cloudfront.net/Talladega.jpg","status":"past","series":"sprint_car"}},{"type":"Feature","geometry":{"type":"Point","coordinates":[-83.05285325092619,36.22321638577251]},"properties":{"track":"Volunteer Speedway","event":"World of Outlaws Rocky Top Rumble","date":"2026-03-13","city":"Bulls Gap","state":"TN","purse":"12000.00","image":"https://dv51o5gtpfm3w.cloudfront.net/bullsgap.jpg","status":"past","series":"sprint_car"}},{"type":"Feature","geometry":{"type":"Point","coordinates":[-97.21724,32.6235]},"properties":{"track":"Kennedale Speedway Park","event":"World of Outlaws Cowtown Classic","date":"2026-03-13","city":"Kennedale","state":"TX","purse":"12000.00","image":"https://dv51o5gtpfm3w.cloudfront.net/KENNEDALE.jpg","status":"past","series":"sprint_car"}},{"type":"Feature","geometry":{"type":"Point","coordinates":[-84.10328,35.63855]},"properties":{"track":"Smoky Mountain Speedway","event":"World of Outlaws Tennessee Tipoff","date":"2026-03-14","city":"Maryville","state":"TN","purse":"20000.00","image":"https://dv51o5gtpfm3w.cloudfront.net/JJA_0078.jpg","status":"past","series":"sprint_car"}},{"type":"Feature","geometry":{"type":"Point","coordinates":[-88.48903,33.4772]},"properties":{"track":"Magnolia Motor Speedway","event":"World of Outlaws Duel at the Mag Practice Night","date":"2026-03-19","city":"Columbus","state":"MS","purse":null,"image":"https://dv51o5gtpfm3w.cloudfront.net/Magnolia.jpg","status":"past","series":"sprint_car"}},{"type":"Feature","geometry":{"type":"Point","coordinates":[-98.42506,34.57417]},"properties":{"track":"Lawton Speedway","event":"World of Outlaws Sooner Stampede","date":"2026-03-20","city":"Lawton","state":"OK","purse":"12000.00","image":"https://dv51o5gtpfm3w.cloudfront.net/9X3A0786.jpg","status":"past","series":"sprint_car"}},{"type":"Feature","geometry":{"type":"Point","coordinates":[-88.48903,33.4772]},"properties":{"track":"Magnolia Motor Speedway","event":"World of Outlaws Duel at the Mag","date":"2026-03-20","city":"Columbus","state":"MS","purse":"12000.00","image":"https://dv51o5gtpfm3w.cloudfront.net/Magnolia.jpg","status":"past","series":"sprint_car"}},{"type":"Feature","geometry":{"type":"Point","coordinates":[-96.19396,35.96918]},"properties":{"track":"Creek County Speedway","event":"World of Outlaws Creekadega 40","date":"2026-03-21","city":"Sapulpa","state":"OK","purse":"12000.00","image":"https://dv51o5gtpfm3w.cloudfront.net/9X3A4421.jpg","status":"past","series":"sprint_car"}},{"type":"Feature","geometry":{"type":"Point","coordinates":[-88.48903,33.4772]},"properties":{"track":"Magnolia Motor Speedway","event":"World of Outlaws Duel at the Mag","date":"2026-03-21","city":"Columbus","state":"MS","purse":"20000.00","image":"https://dv51o5gtpfm3w.cloudfront.net/Magnolia.jpg","status":"past","series":"sprint_car"}},{"type":"Feature","geometry":{"type":"Point","coordinates":[-94.34971,39.76304]},"properties":{"track":"US 36 Raceway","event":"World of Outlaws KC Classic","date":"2026-03-27","city":"Osborn","state":"MO","purse":"12000.00","image":"https://dv51o5gtpfm3w.cloudfront.net/US36.jpg","status":"past","series":"sprint_car"}},{"type":"Feature","geometry":{"type":"Point","coordinates":[-85.14783962698343,32.46250031547487]},"properties":{"track":"East Alabama Motor Speedway","event":"World of Outlaws Chattahoochee Clash","date":"2026-03-27","city":"Phenix City","state":"AL","purse":"12000.00","image":"https://dv51o5gtpfm3w.cloudfront.net/EAMS.jpg","status":"past","series":"sprint_car"}},{"type":"Feature","geometry":{"type":"Point","coordinates":[-97.33802,37.823489]},"properties":{"track":"81 Speedway","event":"World of Outlaws Tallgrass Tussle","date":"2026-03-28","city":"Park City","state":"KS","purse":"12000.00","image":"https://dv51o5gtpfm3w.cloudfront.net/9X3A9959.jpg","status":"past","series":"sprint_car"}},{"type":"Feature","geometry":{"type":"Point","coordinates":[-90.4017,38.26966]},"properties":{"track":"I-55 Federated Auto Parts Raceway Park","event":"World of Outlaws Federated Auto Parts Spring Classic","date":"2026-04-10","city":"Pevely","state":"MO","purse":"12000.00","image":"https://dv51o5gtpfm3w.cloudfront.net/I-55.jpg","status":"past","series":"sprint_car"}},{"type":"Feature","geometry":{"type":"Point","coordinates":[-90.4017,38.26966]},"properties":{"track":"I-55 Federated Auto Parts Raceway Park","event":"World of Outlaws Federated Auto Parts Spring Classic","date":"2026-04-11","city":"Pevely","state":"MO","purse":"12000.00","image":"https://dv51o5gtpfm3w.cloudfront.net/I-55.jpg","status":"past","series":"sprint_car"}},{"type":"Feature","geometry":{"type":"Point","coordinates":[-87.5545,38.20827]},"properties":{"track":"Tri-State Speedway","event":"World of Outlaws Southern Indiana Showdown","date":"2026-04-19","city":"Haubstadt","state":"IN","purse":"12000.00","image":"https://dv51o5gtpfm3w.cloudfront.net/HAUBSTADT.jpg","status":"past","series":"sprint_car"}},{"type":"Feature","geometry":{"type":"Point","coordinates":[-93.111695,41.326529]},"properties":{"track":"Knoxville Raceway","event":"World of Outlaws Premier Chevy Dealers Clash","date":"2026-04-24","city":"Knoxville","state":"IA","purse":null,"image":"https://dv51o5gtpfm3w.cloudfront.net/KNOXVILLE.jpg","status":"past","series":"sprint_car"}},{"type":"Feature","geometry":{"type":"Point","coordinates":[-93.111695,41.326529]},"properties":{"track":"Knoxville Raceway","event":"World of Outlaws Premier Chevy Dealers Clash","date":"2026-04-25","city":"Knoxville","state":"IA","purse":null,"image":"https://dv51o5gtpfm3w.cloudfront.net/KNOXVILLE.jpg","status":"past","series":"sprint_car"}},{"type":"Feature","geometry":{"type":"Point","coordinates":[-91.893183,42.479315]},"properties":{"track":"Independence Motor Speedway","event":"World of Outlaws Independence Late Model Showdown","date":"2026-04-28","city":"Independence","state":"IA","purse":"12000.00","image":null,"status":"past","series":"late_model"}},{"type":"Feature","geometry":{"type":"Point","coordinates":[-91.76115,44.17401]},"properties":{"track":"Mississippi Thunder Speedway","event":"World of Outlaws Dairyland Showdown","date":"2026-04-30","city":"Fountain City","state":"WI","purse":"10000.00","image":"https://dv51o5gtpfm3w.cloudfront.net/Mississippi_Thunder.jpg","status":"past","series":"sprint_car"}},{"type":"Feature","geometry":{"type":"Point","coordinates":[-91.76115,44.17401]},"properties":{"track":"Mississippi Thunder Speedway","event":"World of Outlaws Dairyland Showdown","date":"2026-05-01","city":"Fountain City","state":"WI","purse":"10000.00","image":"https://dv51o5gtpfm3w.cloudfront.net/Mississippi_Thunder.jpg","status":"past","series":"sprint_car"}},{"type":"Feature","geometry":{"type":"Point","coordinates":[-91.76115,44.17401]},"properties":{"track":"Mississippi Thunder Speedway","event":"World of Outlaws Dairyland Showdown","date":"2026-05-02","city":"Fountain City","state":"WI","purse":"40000.00","image":"https://dv51o5gtpfm3w.cloudfront.net/Mississippi_Thunder.jpg","status":"past","series":"sprint_car"}},{"type":"Feature","geometry":{"type":"Point","coordinates":[-76.99465,39.8705]},"properties":{"track":"Lincoln Speedway (PA)","event":"World of Outlaws Gettysburg Clash","date":"2026-05-05","city":"Abbottstown","state":"PA","purse":null,"image":"https://dv51o5gtpfm3w.cloudfront.net/LincolnSpeedway.jpg","status":"past","series":"sprint_car"}},{"type":"Feature","geometry":{"type":"Point","coordinates":[-77.0336,40.15544]},"properties":{"track":"Williams Grove Speedway","event":"World of Outlaws HVAC Distributors Morgan Cup","date":"2026-05-08","city":"Mechanicsburg","state":"PA","purse":null,"image":"https://dv51o5gtpfm3w.cloudfront.net/WILLIAMS-GROVE.jpg","status":"past","series":"sprint_car"}},{"type":"Feature","geometry":{"type":"Point","coordinates":[-77.0336,40.15544]},"properties":{"track":"Williams Grove Speedway","event":"World of Outlaws HVAC Distributors Morgan Cup","date":"2026-05-09","city":"Mechanicsburg","state":"PA","purse":null,"image":"https://dv51o5gtpfm3w.cloudfront.net/WILLIAMS-GROVE.jpg","status":"past","series":"sprint_car"}},{"type":"Feature","geometry":{"type":"Point","coordinates":[-76.87012,40.78727]},"properties":{"track":"Selinsgrove Speedway","event":"World of Outlaws Sand Hill Showdown","date":"2026-05-14","city":"Selinsgrove","state":"PA","purse":"20000.00","image":null,"status":"past","series":"sprint_car"}},{"type":"Feature","geometry":{"type":"Point","coordinates":[-84.63387,40.31865]},"properties":{"track":"Eldora Speedway","event":"World of Outlaws #LetsRaceTwo","date":"2026-05-15","city":"Rossburg","state":"OH","purse":null,"image":"https://dv51o5gtpfm3w.cloudfront.net/ELDORA.jpg","status":"past","series":"sprint_car"}},{"type":"Feature","geometry":{"type":"Point","coordinates":[-79.03835,40.81225]},"properties":{"track":"Marion Center Raceway","event":"World of Outlaws Connor Bobik Memorial","date":"2026-05-15","city":"Marion Center","state":"PA","purse":"6000.00","image":null,"status":"past","series":"sprint_car"}},{"type":"Feature","geometry":{"type":"Point","coordinates":[-84.63387,40.31865]},"properties":{"track":"Eldora Speedway","event":"World of Outlaws #LetsRaceTwo","date":"2026-05-16","city":"Rossburg","state":"OH","purse":null,"image":"https://dv51o5gtpfm3w.cloudfront.net/ELDORA.jpg","status":"past","series":"sprint_car"}},{"type":"Feature","geometry":{"type":"Point","coordinates":[-78.52044,40.02372]},"properties":{"track":"Bedford Speedway","event":"World of Outlaws Billy Winn Classic","date":"2026-05-17","city":"Bedford","state":"PA","purse":"20000.00","image":"https://dv51o5gtpfm3w.cloudfront.net/_DSC7198.jpg","status":"past","series":"sprint_car"}},{"type":"Feature","geometry":{"type":"Point","coordinates":[-90.26015,39.73639]},"properties":{"track":"Jacksonville Speedway","event":"World of Outlaws Hy-Vee Perks 40","date":"2026-05-21","city":"Jacksonville","state":"IL","purse":null,"image":"https://dv51o5gtpfm3w.cloudfront.net/JACKSONVILLE.jpg","status":"past","series":"sprint_car"}},{"type":"Feature","geometry":{"type":"Point","coordinates":[-93.111695,41.326529]},"properties":{"track":"Knoxville Raceway","event":"World of Outlaws Stars and Stripes Salute","date":"2026-05-23","city":"Knoxville","state":"IA","purse":"20000.00","image":"https://dv51o5gtpfm3w.cloudfront.net/KNOXVILLE.jpg","status":"past","series":"sprint_car"}},{"type":"Feature","geometry":{"type":"Point","coordinates":[-96.583482,43.570488]},"properties":{"track":"Huset's Speedway","event":"World of Outlaws Stars and Stripes Salute presented by Folkens Brothers Trucking","date":"2026-05-25","city":"Brandon","state":"SD","purse":"20000.00","image":"https://dv51o5gtpfm3w.cloudfront.net/HUSETS.jpg","status":"past","series":"sprint_car"}},{"type":"Feature","geometry":{"type":"Point","coordinates":[-79.03835,40.81225]},"properties":{"track":"Marion Center Raceway","event":"World of Outlaws Connor Bobik Memorial","date":"2026-05-27","city":"Marion Center","state":"PA","purse":"30000.00","image":null,"status":"past","series":"sprint_car"}},{"type":"Feature","geometry":{"type":"Point","coordinates":[-97.06141,47.93557]},"properties":{"track":"River Cities Speedway","event":"World of Outlaws 1st Leg of the Northern Tour Don Mack Classic","date":"2026-05-29","city":"Grand Forks","state":"ND","purse":"12000.00","image":"https://dv51o5gtpfm3w.cloudfront.net/RIVER-CITIES.jpg","status":"past","series":"sprint_car"}},{"type":"Feature","geometry":{"type":"Point","coordinates":[-87.96925,43.74988]},"properties":{"track":"Plymouth Dirt Track","event":"World of Outlaws Cheese Town Showdown","date":"2026-06-06","city":"Plymouth","state":"WI","purse":"12000.00","image":null,"status":"past","series":"sprint_car"}},{"type":"Feature","geometry":{"type":"Point","coordinates":[-89.211554,43.177845]},"properties":{"track":"Angell Park Speedway","event":"World of Outlaws Ted Johnson Memorial Race","date":"2026-06-07","city":"Sun Prairie","state":"WI","purse":"12000.00","image":"https://dv51o5gtpfm3w.cloudfront.net/ANGELL_PARK_tcarr.jpg","status":"past","series":"sprint_car"}},{"type":"Feature","geometry":{"type":"Point","coordinates":[-93.111695,41.326529]},"properties":{"track":"Knoxville Raceway","event":"World of Outlaws Premier Chevy Dealers Clash","date":"2026-06-12","city":"Knoxville","state":"IA","purse":"12000.00","image":"https://dv51o5gtpfm3w.cloudfront.net/KNOXVILLE.jpg","status":"past","series":"sprint_car"}},{"type":"Feature","geometry":{"type":"Point","coordinates":[-96.583482,43.570488]},"properties":{"track":"Huset's Speedway","event":"World of Outlaws Hefty Seed Huset's Hustle","date":"2026-06-17","city":"Brandon","state":"SD","purse":"20000.00","image":"https://dv51o5gtpfm3w.cloudfront.net/HUSETS.jpg","status":"past","series":"sprint_car"}},{"type":"Feature","geometry":{"type":"Point","coordinates":[-96.583482,43.570488]},"properties":{"track":"Huset's Speedway","event":"World of Outlaws Hefty Seed Huset's Hustle","date":"2026-06-18","city":"Brandon","state":"SD","purse":"150000.00","image":"https://dv51o5gtpfm3w.cloudfront.net/HUSETS.jpg","status":"past","series":"sprint_car"}},{"type":"Feature","geometry":{"type":"Point","coordinates":[-96.583482,43.570488]},"properties":{"track":"Huset's Speedway","event":"World of Outlaws BillionAuto.com Huset's High Bank Nationals","date":"2026-06-19","city":"Brandon","state":"SD","purse":"20000.00","image":"https://dv51o5gtpfm3w.cloudfront.net/HUSETS.jpg","status":"past","series":"sprint_car"}},{"type":"Feature","geometry":{"type":"Point","coordinates":[-87.765666,44.252492]},"properties":{"track":"141 Speedway","event":"World of Outlaws Maribel Late Model Showdown","date":"2026-06-20","city":"Maribel","state":"WI","purse":"25000.00","image":null,"status":"past","series":"late_model"}},{"type":"Feature","geometry":{"type":"Point","coordinates":[-96.583482,43.570488]},"properties":{"track":"Huset's Speedway","event":"World of Outlaws BillionAuto.com Huset's High Bank Nationals","date":"2026-06-20","city":"Brandon","state":"SD","purse":"300000.00","image":"https://dv51o5gtpfm3w.cloudfront.net/HUSETS.jpg","status":"past","series":"sprint_car"}},{"type":"Feature","geometry":{"type":"Point","coordinates":[-93.396739,45.82865]},"properties":{"track":"Ogilvie Raceway","event":"World of Outlaws Land of Lakes Classic","date":"2026-06-22","city":"Ogilvie","state":"MN","purse":"12000.00","image":"https://dv51o5gtpfm3w.cloudfront.net/Ogilvie.jpg","status":"past","series":"sprint_car"}},{"type":"Feature","geometry":{"type":"Point","coordinates":[-96.091805,46.3048]},"properties":{"track":"I-94 emr Speedway","event":"World of Outlaws Fergus Falls Frenzy","date":"2026-06-24","city":"Fergus Falls","state":"MN","purse":"12000.00","image":"https://dv51o5gtpfm3w.cloudfront.net/i94.jpg","status":"past","series":"sprint_car"}},{"type":"Feature","geometry":{"type":"Point","coordinates":[-97.06141,47.93557]},"properties":{"track":"River Cities Speedway","event":"World of Outlaws Grand Forks Late Model Showdown","date":"2026-06-26","city":"Grand Forks","state":"ND","purse":"15000.00","image":"https://dv51o5gtpfm3w.cloudfront.net/RIVER-CITIES.jpg","status":"past","series":"late_model"}},{"type":"Feature","geometry":{"type":"Point","coordinates":[-92.587978,45.190279]},"properties":{"track":"Cedar Lake Speedway","event":"World of Outlaws Federated Auto Parts Independence Spectacular","date":"2026-06-26","city":"New Richmond","state":"WI","purse":null,"image":"https://dv51o5gtpfm3w.cloudfront.net/_DSC9254.jpg","status":"past","series":"sprint_car"}},{"type":"Feature","geometry":{"type":"Point","coordinates":[-92.587978,45.190279]},"properties":{"track":"Cedar Lake Speedway","event":"World of Outlaws Federated Auto Parts Independence Spectacular","date":"2026-06-27","city":"New Richmond","state":"WI","purse":null,"image":"https://dv51o5gtpfm3w.cloudfront.net/_DSC9254.jpg","status":"past","series":"sprint_car"}},{"type":"Feature","geometry":{"type":"Point","coordinates":[-101.259141,48.232878]},"properties":{"track":"Nodak Speedway","event":"World of Outlaws Minot Mayhem","date":"2026-06-28","city":"Minot","state":"ND","purse":"20000.00","image":"https://dv51o5gtpfm3w.cloudfront.net/Nodak.jpg","status":"past","series":"sprint_car"}},{"type":"Feature","geometry":{"type":"Point","coordinates":[-96.52263,47.29653]},"properties":{"track":"Norman County Raceway","event":"World of Outlaws Start to Finish Showdown","date":"2026-06-30","city":"Ada","state":"MN","purse":"20000.00","image":null,"status":"past","series":"sprint_car"}},{"type":"Feature","geometry":{"type":"Point","coordinates":[-86.17335,42.21358]},"properties":{"track":"Hartford Speedway","event":"World of Outlaws Pure Michigan Showdown","date":"2026-07-09","city":"Hartford","state":"MI","purse":"12000.00","image":null,"status":"past","series":"sprint_car"}},{"type":"Feature","geometry":{"type":"Point","coordinates":[-88.18209,42.51566]},"properties":{"track":"Wilmot Raceway","event":"World of Outlaws O'Reilly Auto Parts presents the Larry Hillerud Memorial","date":"2026-07-10","city":"Wilmot","state":"WI","purse":"12000.00","image":"https://dv51o5gtpfm3w.cloudfront.net/WILMOT.jpg","status":"past","series":"sprint_car"}},{"type":"Feature","geometry":{"type":"Point","coordinates":[-88.18209,42.51566]},"properties":{"track":"Wilmot Raceway","event":"World of Outlaws O'Reilly Auto Parts presents the Larry Hillerud Memorial","date":"2026-07-11","city":"Wilmot","state":"WI","purse":"12000.00","image":"https://dv51o5gtpfm3w.cloudfront.net/WILMOT.jpg","status":"past","series":"sprint_car"}},{"type":"Feature","geometry":{"type":"Point","coordinates":[-80.5495,41.30583]},"properties":{"track":"Sharon Speedway","event":"World of Outlaws Battle at the Border","date":"2026-07-11","city":"Hartford","state":"OH","purse":"20000.00","image":"https://dv51o5gtpfm3w.cloudfront.net/SHARON.jpg","status":"past","series":"sprint_car"}},{"type":"Feature","geometry":{"type":"Point","coordinates":[-82.87724955484286,41.068915846230084]},"properties":{"track":"Attica Raceway Park","event":"World of Outlaws Ohio Logistics Brad Doty Classic presented by dac Vitamins and Minerals","date":"2026-07-14","city":"Attica","state":"OH","purse":"20000.00","image":"https://dv51o5gtpfm3w.cloudfront.net/ATTICA.jpg","status":"past","series":"sprint_car"}},{"type":"Feature","geometry":{"type":"Point","coordinates":[-84.63387,40.31865]},"properties":{"track":"Eldora Speedway","event":"World of Outlaws Knight Before the Kings Royal","date":"2026-07-17","city":"Rossburg","state":"OH","purse":"25000.00","image":"https://dv51o5gtpfm3w.cloudfront.net/ELDORA.jpg","status":"past","series":"sprint_car"}},{"type":"Feature","geometry":{"type":"Point","coordinates":[-84.63387,40.31865]},"properties":{"track":"Eldora Speedway","event":"World of Outlaws 43rd Kings Royal","date":"2026-07-18","city":"Rossburg","state":"OH","purse":"200000.00","image":"https://dv51o5gtpfm3w.cloudfront.net/ELDORA.jpg","status":"past","series":"sprint_car"}},{"type":"Feature","geometry":{"type":"Point","coordinates":[-80.113077,43.082814]},"properties":{"track":"Ohsweken Speedway","event":"World of Outlaws Federated Auto Parts Six Nations Showdown, Night 2","date":"2026-07-22","city":"Ohsweken","state":"ON","purse":"20000.00","image":null,"status":"past","series":"sprint_car"}},{"type":"Feature","geometry":{"type":"Point","coordinates":[-88.514754,40.739905]},"properties":{"track":"Fairbury Speedway","event":"World of Outlaws Prairie Dirt Classic","date":"2026-07-24","city":"Fairbury","state":"IL","purse":null,"image":"https://dv51o5gtpfm3w.cloudfront.net/dji_fly_20250614_202210_0064_1749951226967_photo.jpg","status":"past","series":"sprint_car"}},{"type":"Feature","geometry":{"type":"Point","coordinates":[-88.514754,40.739905]},"properties":{"track":"Fairbury Speedway","event":"World of Outlaws Prairie Dirt Classic","date":"2026-07-25","city":"Fairbury","state":"IL","purse":"50000.00","image":"https://dv51o5gtpfm3w.cloudfront.net/dji_fly_20250614_202210_0064_1749951226967_photo.jpg","status":"past","series":"sprint_car"}},{"type":"Feature","geometry":{"type":"Point","coordinates":[-76.54672,43.05954]},"properties":{"track":"Weedsport Speedway","event":"World of Outlaws Empire State Challenge","date":"2026-07-25","city":"Weedsport","state":"NY","purse":null,"image":"https://dv51o5gtpfm3w.cloudfront.net/WEEDSPORT.jpg","status":"past","series":"sprint_car"}},{"type":"Feature","geometry":{"type":"Point","coordinates":[-76.54672,43.05954]},"properties":{"track":"Weedsport Speedway","event":"World of Outlaws Empire State Challenge","date":"2026-07-26","city":"Weedsport","state":"NY","purse":"20000.00","image":"https://dv51o5gtpfm3w.cloudfront.net/WEEDSPORT.jpg","status":"past","series":"sprint_car"}},{"type":"Feature","geometry":{"type":"Point","coordinates":[-76.825773,40.112517]},"properties":{"track":"BAPS Motor Speedway","event":"World of Outlaws Bricker's Bash","date":"2026-07-29","city":"York Haven","state":"PA","purse":"12000.00","image":"https://dv51o5gtpfm3w.cloudfront.net/BAPS.jpg","status":"past","series":"sprint_car"}},{"type":"Feature","geometry":{"type":"Point","coordinates":[-92.587978,45.190279]},"properties":{"track":"Cedar Lake Speedway","event":"World of Outlaws USA Nationals","date":"2026-07-30","city":"New Richmond","state":"WI","purse":"10000.00","image":"https://dv51o5gtpfm3w.cloudfront.net/_DSC9254.jpg","status":"past","series":"sprint_car"}},{"type":"Feature","geometry":{"type":"Point","coordinates":[-77.0336,40.15544]},"properties":{"track":"Williams Grove Speedway","event":"World of Outlaws C&D Rigging Summer Nationals","date":"2026-07-31","city":"Mechanicsburg","state":"PA","purse":"12000.00","image":"https://dv51o5gtpfm3w.cloudfront.net/WILLIAMS-GROVE.jpg","status":"past","series":"sprint_car"}},{"type":"Feature","geometry":{"type":"Point","coordinates":[-92.587978,45.190279]},"properties":{"track":"Cedar Lake Speedway","event":"World of Outlaws USA Nationals","date":"2026-08-01","city":"New Richmond","state":"WI","purse":"100000.00","image":"https://dv51o5gtpfm3w.cloudfront.net/_DSC9254.jpg","status":"past","series":"sprint_car"}},{"type":"Feature","geometry":{"type":"Point","coordinates":[-92.587978,45.190279]},"properties":{"track":"Cedar Lake Speedway","event":"World of Outlaws USA Nationals","date":"2026-08-01","city":"New Richmond","state":"WI","purse":null,"image":"https://dv51o5gtpfm3w.cloudfront.net/_DSC9254.jpg","status":"past","series":"sprint_car"}},{"type":"Feature","geometry":{"type":"Point","coordinates":[-77.0336,40.15544]},"properties":{"track":"Williams Grove Speedway","event":"World of Outlaws C&D Rigging Summer Nationals","date":"2026-08-01","city":"Mechanicsburg","state":"PA","purse":"20000.00","image":"https://dv51o5gtpfm3w.cloudfront.net/WILLIAMS-GROVE.jpg","status":"past","series":"sprint_car"}},{"type":"Feature","geometry":{"type":"Point","coordinates":[-90.4017,38.26966]},"properties":{"track":"I-55 Federated Auto Parts Raceway Park","event":"World of Outlaws Night Before The Ironman 55","date":"2026-08-07","city":"Pevely","state":"MO","purse":"12000.00","image":"https://dv51o5gtpfm3w.cloudfront.net/I-55.jpg","status":"past","series":"sprint_car"}},{"type":"Feature","geometry":{"type":"Point","coordinates":[-90.4017,38.26966]},"properties":{"track":"I-55 Federated Auto Parts Raceway Park","event":"World of Outlaws Ironman 55","date":"2026-08-08","city":"Pevely","state":"MO","purse":"25000.00","image":"https://dv51o5gtpfm3w.cloudfront.net/I-55.jpg","status":"past","series":"sprint_car"}},{"type":"Feature","geometry":{"type":"Point","coordinates":[-90.64939,42.07108]},"properties":{"track":"Maquoketa Speedway","event":"World of Outlaws Hawkeye 100 Practice Night","date":"2026-08-20","city":"Maquoketa","state":"IA","purse":null,"image":null,"status":"future","series":"sprint_car"}},{"type":"Feature","geometry":{"type":"Point","coordinates":[-90.64939,42.07108]},"properties":{"track":"Maquoketa Speedway","event":"World of Outlaws Hawkeye 100","date":"2026-08-21","city":"Maquoketa","state":"IA","purse":"12000.00","image":null,"status":"future","series":"sprint_car"}},{"type":"Feature","geometry":{"type":"Point","coordinates":[-93.396739,45.82865]},"properties":{"track":"Ogilvie Raceway","event":"World of Outlaws Big O Showdown presented by Wagamon Brothers","date":"2026-08-21","city":"Ogilvie","state":"MN","purse":"12000.00","image":"https://dv51o5gtpfm3w.cloudfront.net/Ogilvie.jpg","status":"future","series":"sprint_car"}},{"type":"Feature","geometry":{"type":"Point","coordinates":[-90.64939,42.07108]},"properties":{"track":"Maquoketa Speedway","event":"World of Outlaws Hawkeye 100","date":"2026-08-22","city":"Maquoketa","state":"IA","purse":"25000.00","image":null,"status":"future","series":"sprint_car"}},{"type":"Feature","geometry":{"type":"Point","coordinates":[-94.970219,43.628224]},"properties":{"track":"Jackson Motorplex","event":"World of Outlaws FENDT Showdown","date":"2026-08-22","city":"Jackson","state":"MN","purse":"12000.00","image":"https://dv51o5gtpfm3w.cloudfront.net/JacksonMotorplex.jpg","status":"future","series":"sprint_car"}},{"type":"Feature","geometry":{"type":"Point","coordinates":[-92.65739,41.305686]},"properties":{"track":"Southern Iowa Speedway","event":"World of Outlaws Oskaloosa Corn Belt Showdown","date":"2026-08-26","city":"Oskaloosa","state":"IA","purse":"12000.00","image":null,"status":"future","series":"sprint_car"}},{"type":"Feature","geometry":{"type":"Point","coordinates":[-97.06141,47.93557]},"properties":{"track":"River Cities Speedway","event":"World of Outlaws 2nd Leg of the Northern Tour","date":"2026-08-28","city":"Grand Forks","state":"ND","purse":"12000.00","image":"https://dv51o5gtpfm3w.cloudfront.net/RIVER-CITIES.jpg","status":"future","series":"sprint_car"}},{"type":"Feature","geometry":{"type":"Point","coordinates":[-94.729938,40.993189]},"properties":{"track":"Adams County Speedway","event":"World of Outlaws Southwest Iowa Shootout","date":"2026-08-28","city":"Corning","state":"IA","purse":"20000.00","image":"https://dv51o5gtpfm3w.cloudfront.net/AdamsCounty.jpg","status":"future","series":"sprint_car"}},{"type":"Feature","geometry":{"type":"Point","coordinates":[-96.929948,46.871238]},"properties":{"track":"Fix it Forward Speedway","event":"World of Outlaws Danny Schatz Memorial","date":"2026-08-29","city":"West Fargo","state":"ND","purse":"12000.00","image":"https://dv51o5gtpfm3w.cloudfront.net/RED-RIVER-VALLEY-SPEEDWAY.jpg","status":"future","series":"sprint_car"}},{"type":"Feature","geometry":{"type":"Point","coordinates":[-95.312838,41.665155]},"properties":{"track":"Shelby County Speedway","event":"World of Outlaws Harlan Late Model Showdown","date":"2026-08-29","city":"Harlan","state":"IA","purse":"20000.00","image":null,"status":"future","series":"late_model"}},{"type":"Feature","geometry":{"type":"Point","coordinates":[-101.259141,48.232878]},"properties":{"track":"Nodak Speedway","event":"World of Outlaws Gerdau Metals Recycling Magic City Showdown","date":"2026-08-30","city":"Minot","state":"ND","purse":"12000.00","image":"https://dv51o5gtpfm3w.cloudfront.net/Nodak.jpg","status":"future","series":"sprint_car"}},{"type":"Feature","geometry":{"type":"Point","coordinates":[-96.583482,43.570488]},"properties":{"track":"Huset's Speedway","event":"L.G. Everist Huset\u2019s Shootout presented by D & I Railroad","date":"2026-09-04","city":"Brandon","state":"SD","purse":"15000.00","image":"https://dv51o5gtpfm3w.cloudfront.net/HUSETS.jpg","status":"future","series":"sprint_car"}},{"type":"Feature","geometry":{"type":"Point","coordinates":[-96.583482,43.570488]},"properties":{"track":"Huset's Speedway","event":"L.G. Everist Huset\u2019s Shootout presented by Ace Ready Mix","date":"2026-09-05","city":"Brandon","state":"SD","purse":"15000.00","image":"https://dv51o5gtpfm3w.cloudfront.net/HUSETS.jpg","status":"future","series":"sprint_car"}},{"type":"Feature","geometry":{"type":"Point","coordinates":[-96.583482,43.570488]},"properties":{"track":"Huset's Speedway","event":"L.G. Everist Huset\u2019s Shootout presented by Myrl & Roy\u2019s Paving","date":"2026-09-06","city":"Brandon","state":"SD","purse":"25000.00","image":"https://dv51o5gtpfm3w.cloudfront.net/HUSETS.jpg","status":"future","series":"sprint_car"}},{"type":"Feature","geometry":{"type":"Point","coordinates":[-97.625746,39.833545]},"properties":{"track":"Belleville High Banks","event":"World of Outlaws Belleville High Banks 30","date":"2026-09-11","city":"Belleville","state":"KS","purse":"12000.00","image":"https://cdn.dirtcar.com/wp-content/uploads/sites/42/2025/07/02162154/Belleville-1536x864.jpg","status":"future","series":"sprint_car"}},{"type":"Feature","geometry":{"type":"Point","coordinates":[-100.027707,37.718183]},"properties":{"track":"Dodge City Raceway Park","event":"World of Outlaws Gunslinger Stampede","date":"2026-09-12","city":"Dodge City","state":"KS","purse":"12000.00","image":"https://dv51o5gtpfm3w.cloudfront.net/DodgeCity.jpg","status":"future","series":"sprint_car"}},{"type":"Feature","geometry":{"type":"Point","coordinates":[-104.295015,39.029307]},"properties":{"track":"El Paso County Raceway","event":"World of Outlaws Rocky Mountain Rumble","date":"2026-09-14","city":"Calhan","state":"CO","purse":"12000.00","image":null,"status":"future","series":"sprint_car"}},{"type":"Feature","geometry":{"type":"Point","coordinates":[-121.26553,37.939]},"properties":{"track":"Stockton Dirt Track","event":"World of Outlaws Dennis Roth Classic Night One","date":"2026-09-18","city":"Stockton","state":"CA","purse":"12000.00","image":null,"status":"future","series":"sprint_car"}},{"type":"Feature","geometry":{"type":"Point","coordinates":[-121.26553,37.939]},"properties":{"track":"Stockton Dirt Track","event":"World of Outlaws Dennis Roth Classic Night Two","date":"2026-09-19","city":"Stockton","state":"CA","purse":"83000.00","image":null,"status":"future","series":"sprint_car"}},{"type":"Feature","geometry":{"type":"Point","coordinates":[-119.6346,36.3171]},"properties":{"track":"Kings Speedway","event":"World of Outlaws Central Valley Clash","date":"2026-09-22","city":"Hanford","state":"CA","purse":"12000.00","image":"https://dv51o5gtpfm3w.cloudfront.net/KINGS-SPEEDWAY.jpg","status":"future","series":"sprint_car"}},{"type":"Feature","geometry":{"type":"Point","coordinates":[-90.4017,38.26966]},"properties":{"track":"I-55 Federated Auto Parts Raceway Park","event":"World of Outlaws King of the Arch","date":"2026-09-25","city":"Pevely","state":"MO","purse":"12000.00","image":"https://dv51o5gtpfm3w.cloudfront.net/I-55.jpg","status":"future","series":"sprint_car"}},{"type":"Feature","geometry":{"type":"Point","coordinates":[-119.256903,35.295425]},"properties":{"track":"Bakersfield Speedway at Kevin Harvick's Kern Raceway","event":"World of Outlaws Nashville West Showdown","date":"2026-09-25","city":"Bakersfield","state":"CA","purse":"12000.00","image":null,"status":"future","series":"sprint_car"}},{"type":"Feature","geometry":{"type":"Point","coordinates":[-90.4017,38.26966]},"properties":{"track":"I-55 Federated Auto Parts Raceway Park","event":"World of Outlaws King of the Arch","date":"2026-09-26","city":"Pevely","state":"MO","purse":null,"image":"https://dv51o5gtpfm3w.cloudfront.net/I-55.jpg","status":"future","series":"sprint_car"}},{"type":"Feature","geometry":{"type":"Point","coordinates":[-119.30430398784327,34.275577115297395]},"properties":{"track":"Ventura Raceway","event":"World of Outlaws Battle on the Beach","date":"2026-09-26","city":"Ventura","state":"CA","purse":"12000.00","image":null,"status":"future","series":"sprint_car"}},{"type":"Feature","geometry":{"type":"Point","coordinates":[-93.97427,32.45441]},"properties":{"track":"Boothill Speedway","event":"World of Outlaws Bayou Classic","date":"2026-10-02","city":"Greenwood","state":"LA","purse":"10000.00","image":"https://dv51o5gtpfm3w.cloudfront.net/_DSC1900.jpg","status":"future","series":"sprint_car"}},{"type":"Feature","geometry":{"type":"Point","coordinates":[-77.0336,40.15544]},"properties":{"track":"Williams Grove Speedway","event":"World of Outlaws J&S Classics National Open","date":"2026-10-02","city":"Mechanicsburg","state":"PA","purse":"12000.00","image":"https://dv51o5gtpfm3w.cloudfront.net/WILLIAMS-GROVE.jpg","status":"future","series":"sprint_car"}},{"type":"Feature","geometry":{"type":"Point","coordinates":[-77.0336,40.15544]},"properties":{"track":"Williams Grove Speedway","event":"World of Outlaws J&S Classics National Open","date":"2026-10-03","city":"Mechanicsburg","state":"PA","purse":"75000.00","image":"https://dv51o5gtpfm3w.cloudfront.net/WILLIAMS-GROVE.jpg","status":"future","series":"sprint_car"}},{"type":"Feature","geometry":{"type":"Point","coordinates":[-93.97427,32.45441]},"properties":{"track":"Boothill Speedway","event":"World of Outlaws Bayou Classic","date":"2026-10-03","city":"Greenwood","state":"LA","purse":"50000.00","image":"https://dv51o5gtpfm3w.cloudfront.net/_DSC1900.jpg","status":"future","series":"sprint_car"}},{"type":"Feature","geometry":{"type":"Point","coordinates":[-86.869857,39.576247]},"properties":{"track":"Lincoln Park Speedway","event":"World of Outlaws Cushion Capital Clash","date":"2026-10-16","city":"Putnamville","state":"IN","purse":"12000.00","image":"https://dv51o5gtpfm3w.cloudfront.net/LincolnPark.jpg","status":"future","series":"sprint_car"}},{"type":"Feature","geometry":{"type":"Point","coordinates":[-93.91022,33.53486]},"properties":{"track":"Texarkana 67 Speedway","event":"World of Outlaws Jason Johnson Classic","date":"2026-10-23","city":"Texarkana","state":"AR","purse":"20000.00","image":null,"status":"future","series":"sprint_car"}},{"type":"Feature","geometry":{"type":"Point","coordinates":[-93.91022,33.53486]},"properties":{"track":"Texarkana 67 Speedway","event":"World of Outlaws Short Track Nationals","date":"2026-10-24","city":"Texarkana","state":"AR","purse":"25000.00","image":null,"status":"future","series":"sprint_car"}},{"type":"Feature","geometry":{"type":"Point","coordinates":[-80.68411120049268,35.35851884135107]},"properties":{"track":"The Dirt Track at Charlotte","event":"World of Outlaws World Finals","date":"2026-11-04","city":"Concord","state":"NC","purse":null,"image":null,"status":"future","series":"sprint_car"}},{"type":"Feature","geometry":{"type":"Point","coordinates":[-80.68411120049268,35.35851884135107]},"properties":{"track":"The Dirt Track at Charlotte","event":"World of Outlaws World Finals","date":"2026-11-05","city":"Concord","state":"NC","purse":"15000.00","image":null,"status":"future","series":"sprint_car"}},{"type":"Feature","geometry":{"type":"Point","coordinates":[-80.68411120049268,35.35851884135107]},"properties":{"track":"The Dirt Track at Charlotte","event":"World of Outlaws World Finals","date":"2026-11-06","city":"Concord","state":"NC","purse":"15000.00","image":null,"status":"future","series":"sprint_car"}},{"type":"Feature","geometry":{"type":"Point","coordinates":[-80.68411120049268,35.35851884135107]},"properties":{"track":"The Dirt Track at Charlotte","event":"World of Outlaws World Finals","date":"2026-11-07","city":"Concord","state":"NC","purse":"30000.00","image":null,"status":"future","series":"sprint_car"}}]}